{
  "type": "FeatureCollection",
  "features": [
    {
      "type": "Feature",
      "properties": {
        "norad_id": 66418,
        "name": "HULIANWANG DIGUI 13G",
        "group": "last-30-days",
        "lat": -16.115522127046336,
        "lon": -91.54009325984524,
        "alt_km": 816.5531976440079,
        "timestamp": "2025-12-07T20:38:12.865834+00:00",
        "meta_object_name": "HULIANWANG DIGUI 13G",
        "meta_object_id": "2025-258G",
        "meta_epoch": "2025-12-07T07:14:21.853248",
        "meta_mean_motion": 14.21580215,
        "meta_eccentricity": 0.00081049,
        "meta_inclination": 50.0012,
        "meta_ra_of_asc_node": 284.8412,
        "meta_arg_of_pericenter": 339.3875,
        "meta_mean_anomaly": 20.6709,
        "meta_ephemeris_type": 0,
        "meta_classification_type": "U",
        "meta_norad_cat_id": 66418,
        "meta_element_set_no": 999,
        "meta_rev_at_epoch": 388,
        "meta_bstar": 0.00030793411,
        "meta_mean_motion_dot": 5.21e-06,
        "meta_mean_motion_ddot": 0,
        "tle_line1": "1 66418U 25258G   25341.30164182  .00000521  00000+0  30793-3 0  9999",
        "tle_line2": "2 66418  50.0012 284.8412 0008104 339.3875  20.6709 14.21580215  3887"
      },
      "geometry": {
        "type": "Point",
        "coordinates": [
          -91.54009325984524,
          -16.115522127046336
        ]
      }
    },
    {
      "type": "Feature",
      "properties": {
        "norad_id": 66419,
        "name": "HULIANWANG DIGUI 13H",
        "group": "last-30-days",
        "lat": -9.141107569819981,
        "lon": -85.28580940609504,
        "alt_km": 815.8114990513504,
        "timestamp": "2025-12-07T20:38:12.865847+00:00",
        "meta_object_name": "HULIANWANG DIGUI 13H",
        "meta_object_id": "2025-258H",
        "meta_epoch": "2025-12-07T07:11:49.889472",
        "meta_mean_motion": 14.21707586,
        "meta_eccentricity": 0.00075632,
        "meta_inclination": 50.0007,
        "meta_ra_of_asc_node": 284.8288,
        "meta_arg_of_pericenter": 339.8057,
        "meta_mean_anomaly": 20.2555,
        "meta_ephemeris_type": 0,
        "meta_classification_type": "U",
        "meta_norad_cat_id": 66419,
        "meta_element_set_no": 999,
        "meta_rev_at_epoch": 388,
        "meta_bstar": 0.00028989243,
        "meta_mean_motion_dot": 4.83e-06,
        "meta_mean_motion_ddot": 0,
        "tle_line1": "1 66419U 25258H   25341.29988298  .00000483  00000+0  28989-3 0  9991",
        "tle_line2": "2 66419  50.0007 284.8288 0007563 339.8057  20.2555 14.21707586  3885"
      },
      "geometry": {
        "type": "Point",
        "coordinates": [
          -85.28580940609504,
          -9.141107569819981
        ]
      }
    },
    {
      "type": "Feature",
      "properties": {
        "norad_id": 66420,
        "name": "HULIANWANG DIGUI 13J",
        "group": "last-30-days",
        "lat": -3.326121296250819,
        "lon": -80.32169121687362,
        "alt_km": 815.1316097538629,
        "timestamp": "2025-12-07T20:38:12.865857+00:00",
        "meta_object_name": "HULIANWANG DIGUI 13J",
        "meta_object_id": "2025-258J",
        "meta_epoch": "2025-12-07T07:09:47.060640",
        "meta_mean_motion": 14.21873195,
        "meta_eccentricity": 0.0006791,
        "meta_inclination": 50.0007,
        "meta_ra_of_asc_node": 284.8319,
        "meta_arg_of_pericenter": 346.104,
        "meta_mean_anomaly": 13.9684,
        "meta_ephemeris_type": 0,
        "meta_classification_type": "U",
        "meta_norad_cat_id": 66420,
        "meta_element_set_no": 999,
        "meta_rev_at_epoch": 387,
        "meta_bstar": 0.00028871693,
        "meta_mean_motion_dot": 4.82e-06,
        "meta_mean_motion_ddot": 0,
        "tle_line1": "1 66420U 25258J   25341.29846135  .00000482  00000+0  28872-3 0  9996",
        "tle_line2": "2 66420  50.0007 284.8319 0006791 346.1040  13.9684 14.21873195  3878"
      },
      "geometry": {
        "type": "Point",
        "coordinates": [
          -80.32169121687362,
          -3.326121296250819
        ]
      }
    },
    {
      "type": "Feature",
      "properties": {
        "norad_id": 66421,
        "name": "CZ-12 R/B",
        "group": "last-30-days",
        "lat": -37.591406987970025,
        "lon": -121.15616856782833,
        "alt_km": 742.9121447108573,
        "timestamp": "2025-12-07T20:38:12.865870+00:00",
        "meta_object_name": "CZ-12 R/B",
        "meta_object_id": "2025-258K",
        "meta_epoch": "2025-12-07T07:34:44.318208",
        "meta_mean_motion": 14.42320426,
        "meta_eccentricity": 0.00645151,
        "meta_inclination": 49.9961,
        "meta_ra_of_asc_node": 281.484,
        "meta_arg_of_pericenter": 229.9079,
        "meta_mean_anomaly": 129.6175,
        "meta_ephemeris_type": 0,
        "meta_classification_type": "U",
        "meta_norad_cat_id": 66421,
        "meta_element_set_no": 999,
        "meta_rev_at_epoch": 393,
        "meta_bstar": 0.0001278697,
        "meta_mean_motion_dot": 2.65e-06,
        "meta_mean_motion_ddot": 0,
        "tle_line1": "1 66421U 25258K   25341.31579072  .00000265  00000+0  12787-3 0  9990",
        "tle_line2": "2 66421  49.9961 281.4840 0064515 229.9079 129.6175 14.42320426  3939"
      },
      "geometry": {
        "type": "Point",
        "coordinates": [
          -121.15616856782833,
          -37.591406987970025
        ]
      }
    },
    {
      "type": "Feature",
      "properties": {
        "norad_id": 66422,
        "name": "STARLINK-35617",
        "group": "last-30-days",
        "lat": -17.006230757242513,
        "lon": -84.61299896658444,
        "alt_km": 445.26439502262565,
        "timestamp": "2025-12-07T20:38:12.865880+00:00",
        "meta_object_name": "STARLINK-35617",
        "meta_object_id": "2025-259A",
        "meta_epoch": "2025-12-07T06:00:04.999968",
        "meta_mean_motion": 15.40621207,
        "meta_eccentricity": 0.00011056,
        "meta_inclination": 43.0007,
        "meta_ra_of_asc_node": 79.7417,
        "meta_arg_of_pericenter": 259.6203,
        "meta_mean_anomaly": 159.4131,
        "meta_ephemeris_type": 0,
        "meta_classification_type": "U",
        "meta_norad_cat_id": 66422,
        "meta_element_set_no": 999,
        "meta_rev_at_epoch": 539,
        "meta_bstar": 0.0020531752,
        "meta_mean_motion_dot": 0.00086211,
        "meta_mean_motion_ddot": 0,
        "tle_line1": "1 66422U 25259A   25341.25005787  .00086211  00000+0  20532-2 0  9993",
        "tle_line2": "2 66422  43.0007  79.7417 0001105 259.6203 159.4131 15.40621207  5394"
      },
      "geometry": {
        "type": "Point",
        "coordinates": [
          -84.61299896658444,
          -17.006230757242513
        ]
      }
    },
    {
      "type": "Feature",
      "properties": {
        "norad_id": 66423,
        "name": "STARLINK-35618",
        "group": "last-30-days",
        "lat": -24.717883742005863,
        "lon": -74.20035066341869,
        "alt_km": 445.7621637439752,
        "timestamp": "2025-12-07T20:38:12.865891+00:00",
        "meta_object_name": "STARLINK-35618",
        "meta_object_id": "2025-259B",
        "meta_epoch": "2025-12-07T06:00:04.999968",
        "meta_mean_motion": 15.40620028,
        "meta_eccentricity": 0.00013084,
        "meta_inclination": 43.0004,
        "meta_ra_of_asc_node": 79.7117,
        "meta_arg_of_pericenter": 267.2773,
        "meta_mean_anomaly": 164.1878,
        "meta_ephemeris_type": 0,
        "meta_classification_type": "U",
        "meta_norad_cat_id": 66423,
        "meta_element_set_no": 999,
        "meta_rev_at_epoch": 539,
        "meta_bstar": 0.0022133419,
        "meta_mean_motion_dot": 0.0009304,
        "meta_mean_motion_ddot": 0,
        "tle_line1": "1 66423U 25259B   25341.25005787  .00093040  00000+0  22133-2 0  9991",
        "tle_line2": "2 66423  43.0004  79.7117 0001308 267.2773 164.1878 15.40620028  5392"
      },
      "geometry": {
        "type": "Point",
        "coordinates": [
          -74.20035066341869,
          -24.717883742005863
        ]
      }
    },
    {
      "type": "Feature",
      "properties": {
        "norad_id": 66424,
        "name": "STARLINK-35588",
        "group": "last-30-days",
        "lat": -31.63249289057871,
        "lon": -62.455354880602464,
        "alt_km": 445.9614757284007,
        "timestamp": "2025-12-07T20:38:12.865900+00:00",
        "meta_object_name": "STARLINK-35588",
        "meta_object_id": "2025-259C",
        "meta_epoch": "2025-12-07T06:00:04.999968",
        "meta_mean_motion": 15.4060458,
        "meta_eccentricity": 0.00013883,
        "meta_inclination": 43.0007,
        "meta_ra_of_asc_node": 79.682,
        "meta_arg_of_pericenter": 267.2024,
        "meta_mean_anomaly": 176.7143,
        "meta_ephemeris_type": 0,
        "meta_classification_type": "U",
        "meta_norad_cat_id": 66424,
        "meta_element_set_no": 999,
        "meta_rev_at_epoch": 539,
        "meta_bstar": 0.0031494072,
        "meta_mean_motion_dot": 0.00133152,
        "meta_mean_motion_ddot": 0,
        "tle_line1": "1 66424U 25259C   25341.25005787  .00133152  00000+0  31494-2 0  9991",
        "tle_line2": "2 66424  43.0007  79.6820 0001388 267.2024 176.7143 15.40604580  5392"
      },
      "geometry": {
        "type": "Point",
        "coordinates": [
          -62.455354880602464,
          -31.63249289057871
        ]
      }
    }
  ]
}